QIANFAN-33              
1 61566U 24185Q   26019.59153430  .00000183  00000+0  12278-3 0  9996
2 61566  88.9765  74.5907 0006713 189.8915 170.2131 13.96582963 74445
QIANFAN-34              
1 61567U 24185R   26019.61577355  .00000303  00000+0  18864-3 0  9997
2 61567  88.9740  74.1015 0005550 189.8999 170.2073 14.02339869 74667
QIANFAN-35              
1 61568U 24185S   26019.60676292  .00000668  00000+0  26316-3 0  9992
2 61568  88.9767  72.4367 0007828 146.2530 213.9165 14.28036017 75582
QIANFAN-36              
1 61569U 24185T   26019.60740028 -.00000043  00000+0 -79991-4 0  9999
2 61569  88.9751  77.1030 0004127 298.7636  61.3103 13.55599962 73053
QIANFAN-37              
1 62238U 24232B   26019.61716935  .00000023  00000+0  17289-4 0  9995
2 62238  88.9993  37.5012 0001929  72.1909 287.9453 13.50982596104287
QIANFAN-38              
1 62239U 24232C   26019.56783540  .00000024  00000+0  19045-4 0  9999
2 62239  89.0000  37.4246 0016525  86.8348 273.4694 13.50980558104333
QIANFAN-39              
1 62240U 24232D   26019.61254946  .00000127  00000+0  47766-4 0  9995
2 62240  88.9996  32.9725 0014578 321.2447  38.7699 14.25412624106786
QIANFAN-40              
1 62241U 24232E   26019.60075454  .00000040  00000+0  43670-4 0  9994
2 62241  89.0028  37.0162 0015561  93.7361 266.5570 13.50980736104705
